{
  "norad_id": 64723,
  "name": "MTG-S1",
  "history": [
    {
      "epoch": "2026-03-28T20:29:38.777856Z",
      "apogee_km": 35796.59412834447,
      "perigee_km": 35776.5296347347,
      "latitude_deg": 0.20554252684488178,
      "longitude_deg": -3.5161114948925287,
      "height_km": 35795.89770128668,
      "semi_major_axis_km": 42164.69888153959,
      "eccentricity": 0.00023793,
      "inclination_deg": 0.6276,
      "raan_deg": 331.0297,
      "arg_perigee_deg": 349.3349,
      "mean_anomaly_deg": 169.7679,
      "mean_motion_rev_day": 1.00271903
    },
    {
      "epoch": "2026-03-29T04:27:36.609696Z",
      "apogee_km": 35796.4661515844,
      "perigee_km": 35776.60659042665,
      "latitude_deg": -0.597801557418535,
      "longitude_deg": -3.546965745363389,
      "height_km": 35782.87927952019,
      "semi_major_axis_km": 42164.67337100553,
      "eccentricity": 0.0002355,
      "inclination_deg": 0.6269,
      "raan_deg": 331.1047,
      "arg_perigee_deg": 349.6462,
      "mean_anomaly_deg": 289.2002,
      "mean_motion_rev_day": 1.00271994
    },
    {
      "epoch": "2026-03-30T02:42:22.483872Z",
      "apogee_km": 35796.24762361206,
      "perigee_km": 35776.69167904717,
      "latitude_deg": -0.5837524422545528,
      "longitude_deg": -3.5488235270270305,
      "height_km": 35787.3736434842,
      "semi_major_axis_km": 42164.60665132962,
      "eccentricity": 0.0002319,
      "inclination_deg": 0.6259,
      "raan_deg": 331.3068,
      "arg_perigee_deg": 350.8324,
      "mean_anomaly_deg": 262.418,
      "mean_motion_rev_day": 1.00272232
    },
    {
      "epoch": "2026-03-30T04:14:38.714208Z",
      "apogee_km": 35796.226975524114,
      "perigee_km": 35776.70223510476,
      "latitude_deg": -0.5996746552538442,
      "longitude_deg": -3.546940770624044,
      "height_km": 35783.47101476324,
      "semi_major_axis_km": 42164.60160531444,
      "eccentricity": 0.00023153,
      "inclination_deg": 0.6257,
      "raan_deg": 331.3072,
      "arg_perigee_deg": 350.8981,
      "mean_anomaly_deg": 285.4828,
      "mean_motion_rev_day": 1.0027225
    },
    {
      "epoch": "2026-03-30T07:50:30.431040Z",
      "apogee_km": 35796.178228888835,
      "perigee_km": 35776.73191902432,
      "latitude_deg": -0.28501009744597566,
      "longitude_deg": -3.530161825341355,
      "height_km": 35776.896621146545,
      "semi_major_axis_km": 42164.59207395658,
      "eccentricity": 0.0002306,
      "inclination_deg": 0.6258,
      "raan_deg": 331.3255,
      "arg_perigee_deg": 351.1597,
      "mean_anomaly_deg": 339.3163,
      "mean_motion_rev_day": 1.00272284
    },
    {
      "epoch": "2026-03-30T21:59:38.419296Z",
      "apogee_km": 35796.05943176584,
      "perigee_km": 35776.76493405974,
      "latitude_deg": -0.050401428439640385,
      "longitude_deg": -3.5268079965410157,
      "height_km": 35795.39441968029,
      "semi_major_axis_km": 42164.54918291279,
      "eccentricity": 0.0002288,
      "inclination_deg": 0.6252,
      "raan_deg": 331.4575,
      "arg_perigee_deg": 352.234,
      "mean_anomaly_deg": 190.9758,
      "mean_motion_rev_day": 1.00272437
    },
    {
      "epoch": "2026-03-31T19:46:47.760960Z",
      "apogee_km": 35795.82122491354,
      "perigee_km": 35776.872505864434,
      "latitude_deg": 0.2791159624104853,
      "longitude_deg": -3.5101549230081224,
      "height_km": 35794.519166549755,
      "semi_major_axis_km": 42164.48386538899,
      "eccentricity": 0.0002247,
      "inclination_deg": 0.6242,
      "raan_deg": 331.6202,
      "arg_perigee_deg": 353.5873,
      "mean_anomaly_deg": 157.1461,
      "mean_motion_rev_day": 1.0027267
    },
    {
      "epoch": "2026-04-01T16:18:55.497600Z",
      "apogee_km": 35795.59312354492,
      "perigee_km": 35776.981746599275,
      "latitude_deg": 0.5928999587952033,
      "longitude_deg": -3.496076785437054,
      "height_km": 35788.02020008754,
      "semi_major_axis_km": 42164.4244350721,
      "eccentricity": 0.0002207,
      "inclination_deg": 0.623,
      "raan_deg": 331.7927,
      "arg_perigee_deg": 354.7543,
      "mean_anomaly_deg": 104.6854,
      "mean_motion_rev_day": 1.00272882
    },
    {
      "epoch": "2026-04-02T19:41:50.836128Z",
      "apogee_km": 35795.29844336581,
      "perigee_km": 35777.125608935545,
      "latitude_deg": 0.2741094129152121,
      "longitude_deg": -3.507276509512726,
      "height_km": 35793.853174614094,
      "semi_major_axis_km": 42164.34902615068,
      "eccentricity": 0.0002155,
      "inclination_deg": 0.6221,
      "raan_deg": 331.9993,
      "arg_perigee_deg": 356.5599,
      "mean_anomaly_deg": 154.5336,
      "mean_motion_rev_day": 1.00273151
    },
    {
      "epoch": "2026-04-02T21:24:33.483744Z",
      "apogee_km": 35795.28060366753,
      "perigee_km": 35777.13559939654,
      "latitude_deg": 0.01231835335329017,
      "longitude_deg": -3.5190620624285796,
      "height_km": 35794.771237773,
      "semi_major_axis_km": 42164.34510153204,
      "eccentricity": 0.00021517,
      "inclination_deg": 0.6221,
      "raan_deg": 332.0234,
      "arg_perigee_deg": 356.664,
      "mean_anomaly_deg": 180.1537,
      "mean_motion_rev_day": 1.00273165
    },
    {
      "epoch": "2026-04-03T19:39:22.926240Z",
      "apogee_km": 35795.04026777976,
      "perigee_km": 35777.26380352233,
      "latitude_deg": 0.27271847794395804,
      "longitude_deg": -3.5044556993616793,
      "height_km": 35793.529941264744,
      "semi_major_axis_km": 42164.28903565105,
      "eccentricity": 0.0002108,
      "inclination_deg": 0.6211,
      "raan_deg": 332.1829,
      "arg_perigee_deg": 357.9691,
      "mean_anomaly_deg": 153.3138,
      "mean_motion_rev_day": 1.00273365
    },
    {
      "epoch": "2026-04-04T19:36:54.417600Z",
      "apogee_km": 35794.81440115705,
      "perigee_km": 35777.383705972505,
      "latitude_deg": 0.27186229650004917,
      "longitude_deg": -3.50030623799938,
      "height_km": 35793.25704996093,
      "semi_major_axis_km": 42164.23605356478,
      "eccentricity": 0.0002067,
      "inclination_deg": 0.6201,
      "raan_deg": 332.3642,
      "arg_perigee_deg": 359.095,
      "mean_anomaly_deg": 152.378,
      "mean_motion_rev_day": 1.00273554
    },
    {
      "epoch": "2026-04-05T08:12:38.776608Z",
      "apogee_km": 35794.74221226297,
      "perigee_km": 35777.41440633947,
      "latitude_deg": -0.1804580771265621,
      "longitude_deg": -3.5170300398304137,
      "height_km": 35777.396814643376,
      "semi_major_axis_km": 42164.215309301224,
      "eccentricity": 0.00020548,
      "inclination_deg": 0.6196,
      "raan_deg": 332.4619,
      "arg_perigee_deg": 359.4572,
      "mean_anomaly_deg": 341.3739,
      "mean_motion_rev_day": 1.00273628
    },
    {
      "epoch": "2026-04-05T19:34:26.882688Z",
      "apogee_km": 35794.603697189916,
      "perigee_km": 35777.50190180724,
      "latitude_deg": 0.2712239356773469,
      "longitude_deg": -3.4951280318398803,
      "height_km": 35793.01498394243,
      "semi_major_axis_km": 42164.18979949858,
      "eccentricity": 0.0002028,
      "inclination_deg": 0.6191,
      "raan_deg": 332.5442,
      "arg_perigee_deg": 0.0116,
      "mean_anomaly_deg": 151.6574,
      "mean_motion_rev_day": 1.00273719
    }
  ]
}